OBJECT_NAME,OBJECT_ID,EPOCH,MEAN_MOTION,ECCENTRICITY,INCLINATION,RA_OF_ASC_NODE,ARG_OF_PERICENTER,MEAN_ANOMALY,EPHEMERIS_TYPE,CLASSIFICATION_TYPE,NORAD_CAT_ID,ELEMENT_SET_NO,REV_AT_EPOCH,BSTAR,MEAN_MOTION_DOT,MEAN_MOTION_DDOT
NIMIQ 4,2008-044A,2026-06-19T05:34:49.263168,1.00267209,.00020602,0.0379,52.8727,35.8109,180.5170,0,U,33373,999,6500,0,0,0
GALAXY 19 (G-19),2008-045A,2026-06-19T05:34:19.099200,1.00271215,.00025542,0.0309,263.5335,189.7270,160.7811,0,U,33376,999,6492,0,-.145E-5,0
ASTRA 1M,2008-057A,2026-06-19T06:07:27.643584,1.00272753,.00048298,0.3028,82.4846,25.6329,270.5938,0,U,33436,999,4575,0,.114E-5,0
EUTELSAT HOTBIRD 13C,2008-065A,2026-06-19T05:47:37.047264,1.00270259,.00034037,2.9565,79.1689,8.6376,216.2649,0,U,33459,999,4736,0,-.29E-5,0
EXPRESS-AM44,2009-007A,2026-06-19T04:16:04.954368,1.00271002,.00038262,3.4695,78.3681,2.2845,239.7600,0,U,33595,999,5230,0,-.97E-6,0
NSS-9,2009-008A,2026-06-19T04:47:38.635008,1.00270938,.00020287,1.2680,82.6379,346.5606,93.1970,0,U,33749,999,6354,0,.65E-6,0
TELSTAR 11N,2009-009A,2026-06-19T04:08:35.671776,1.00270051,.00022686,0.0266,70.0517,20.8282,201.0980,0,U,34111,999,4626,0,-.257E-5,0
WGS F2 (USA 204),2009-017A,2026-06-19T04:35:40.575840,1.00269753,.00001841,0.0188,6.0524,318.3465,69.4416,0,U,34713,999,4563,0,.62E-6,0
SES-7 (PROTOSTAR 2),2009-027A,2026-06-19T01:48:38.761632,1.00270645,.00005615,0.0432,69.4363,277.7077,55.5706,0,U,34941,999,6264,0,-.351E-5,0
MEASAT-3A,2009-032A,2026-06-19T05:04:52.696992,1.00271829,.00029341,0.0221,2.4613,78.1148,63.0927,0,U,35362,999,805,0,-.117E-5,0
GOES 14,2009-033A,2026-06-19T06:42:03.553920,1.00110302,.00018561,1.6965,83.0184,12.3036,53.3158,0,U,35491,999,661,0,-.306E-5,0
FM-5,2009-034A,2026-06-19T03:54:39.839904,1.00267719,.00006838,0.0191,295.6892,7.2084,296.9935,0,U,35493,999,4666,0,-.206E-5,0
TERRESTAR-1,2009-035A,2026-06-19T05:30:11.994336,1.00272712,.00026699,5.1774,48.7988,32.7261,157.4697,0,U,35496,999,6215,0,-.65E-6,0
ASIASAT 5,2009-042A,2026-06-19T03:05:19.559904,1.00266328,.00015914,0.0293,49.0615,39.0999,326.0916,0,U,35696,999,6172,0,0,0
JCSAT-12 (JCSAT-RA),2009-044A,2026-06-19T06:39:33.794208,1.00270334,.00002098,0.0080,23.3012,277.9275,198.2033,0,U,35755,999,6163,0,-.334E-5,0
OPTUS D3,2009-044B,2026-06-18T22:13:13.629216,1.00270968,.00025777,0.8746,268.9338,175.8548,311.8101,0,U,35756,999,6158,0,-.152E-5,0
NIMIQ 5,2009-050A,2026-06-19T02:15:52.601184,1.00267319,.00028323,0.0197,4.6168,81.7376,142.2406,0,U,35873,999,6136,0,0,0
AMAZONAS 2,2009-054A,2026-06-19T05:27:49.232160,1.00272738,.00031655,1.8219,83.0243,6.5080,187.8798,0,U,35942,999,6120,0,-.266E-5,0
COMSATBW-1,2009-054B,2026-06-19T02:54:35.588736,1.00268277,.00027431,0.0540,161.4279,284.2324,288.3861,0,U,35943,999,6132,0,.19E-6,0
NSS-12,2009-058A,2026-06-19T04:35:18.110976,1.00274963,.00050161,0.0928,275.1070,144.3080,333.8213,0,U,36032,999,6093,0,.65E-6,0
THOR 6,2009-058B,2026-06-19T06:01:43.195296,1.00271520,.00016335,0.0242,99.0120,345.8921,272.1597,0,U,36033,999,6102,0,-.16E-6,0
INTELSAT 14 (IS-14),2009-064A,2026-06-19T04:06:28.375200,1.00271821,.0002337,0.0124,321.8072,124.6896,197.5268,0,U,36097,999,6062,0,-.28E-5,0
EUTELSAT 36B,2009-065A,2026-06-19T06:16:19.294752,1.00268917,.00054874,0.4972,81.1358,4.9132,326.0207,0,U,36101,999,6072,0,.106E-5,0
INTELSAT 15 (IS-15),2009-067A,2026-06-19T03:00:57.479328,1.00272203,.0002135,0.0159,340.9265,107.1363,309.6753,0,U,36106,999,4124,0,-.191E-5,0
WGS F3 (USA 211),2009-068A,2026-06-18T15:43:33.110976,1.00270012,.00002578,0.3242,85.6919,251.5107,35.5777,0,U,36108,999,4660,0,.58E-6,0
DIRECTV 12,2009-075A,2026-06-18T15:51:24.857568,1.00272181,.00003852,0.0434,170.9001,299.0990,292.0273,0,U,36131,999,4656,0,-.11E-5,0
BEIDOU-2 G1,2010-001A,2026-06-19T02:57:24.049728,1.00269566,.00022347,4.2987,60.4062,295.8627,95.8917,0,U,36287,999,6019,0,-.288E-5,0
SDO,2010-005A,2026-06-17T09:50:26.387232,1.00269958,.00017341,34.6527,86.3378,44.0102,180.8312,0,U,36395,999,6006,0,-.96E-6,0
INTELSAT 16 (IS-16),2010-006A,2026-06-19T05:49:13.773792,1.00272329,.00019692,0.0097,336.1585,125.2068,177.2051,0,U,36397,999,5967,0,-.251E-5,0
EWS-G2 (GOES 15),2010-008A,2026-06-19T04:57:21.684672,1.00266444,.00048692,1.2841,82.8145,42.1564,280.4817,0,U,36411,999,5965,0,.13E-6,0
ECHOSTAR 14,2010-010A,2026-06-19T05:28:04.696896,1.00273698,.00023384,0.0178,23.5892,69.9224,137.0698,0,U,36499,999,4657,0,-.6E-7,0
SES-1,2010-016A,2026-06-19T05:33:04.218048,1.00270857,.00026445,0.0301,298.8870,145.2894,165.5445,0,U,36516,999,5905,0,-.12E-5,0
