
AMAZONAS 2
1 35942U 09054A   26170.22765315 -.00000266  00000+0  00000+0 0  9991
2 35942   1.8219  83.0243 0003165   6.5080 187.8798  1.00272738 61207

ASIASAT 5
1 35696U 09042A   26170.12869861  .00000000  00000+0  00000+0 0  9999
2 35696   0.0293  49.0615 0001591  39.0999 326.0916  1.00266328 61726

ASTRA 1M
1 33436U 08057A   26170.25518106  .00000114  00000+0  00000+0 0  9997
2 33436   0.3028  82.4846 0004829  25.6329 270.5938  1.00272753 45758

BEIDOU-2 G1
1 36287U 10001A   26170.12319502 -.00000288  00000+0  00000+0 0  9994
2 36287   4.2987  60.4062 0002234 295.8627  95.8917  1.00269566 60196

COMSATBW-1
1 35943U 09054B   26170.12124524  .00000019  00000+0  00000+0 0  9997
2 35943   0.0540 161.4279 0002743 284.2324 288.3861  1.00268277 61327

DIRECTV 12
1 36131U 09075A   26169.66070437 -.00000110  00000+0  00000+0 0  9993
2 36131   0.0434 170.9001 0000385 299.0990 292.0273  1.00272181 46567

ECHOSTAR 14
1 36499U 10010A   26170.22783214 -.00000006  00000+0  00000+0 0  9993
2 36499   0.0178  23.5892 0002338  69.9224 137.0698  1.00273698 46578

EUTELSAT 36B
1 36101U 09065A   26170.26133443  .00000106  00000+0  00000+0 0  9998
2 36101   0.4972  81.1358 0005487   4.9132 326.0207  1.00268917 60723

EUTELSAT HOTBIRD 13C
1 33459U 08065A   26170.24140101 -.00000290  00000+0  00000+0 0  9992
2 33459   2.9565  79.1689 0003403   8.6376 216.2649  1.00270259 47369

EWS-G2 (GOES 15)
1 36411U 10008A   26170.20650098  .00000013  00000+0  00000+0 0  9992
2 36411   1.2841  82.8145 0004869  42.1564 280.4817  1.00266444 59652

EXPRESS-AM44
1 33595U 09007A   26170.17783512 -.00000097  00000+0  00000+0 0  9996
2 33595   3.4695  78.3681 0003826   2.2845 239.7600  1.00271002 52307

FM-5
1 35493U 09034A   26170.16296111 -.00000206  00000+0  00000+0 0  9990
2 35493   0.0191 295.6892 0000683   7.2084 296.9935  1.00267719 46664

GALAXY 19 (G-19)
1 33376U 08045A   26170.23216550 -.00000145  00000+0  00000+0 0  9998
2 33376   0.0309 263.5335 0002554 189.7270 160.7811  1.00271215 64927

GOES 14
1 35491U 09033A   26170.27920780 -.00000306  00000+0  00000+0 0  9996
2 35491   1.6965  83.0184 0001856  12.3036  53.3158  1.00110302  6616

INTELSAT 14 (IS-14)
1 36097U 09064A   26170.17116175 -.00000280  00000+0  00000+0 0  9998
2 36097   0.0124 321.8072 0002337 124.6896 197.5268  1.00271821 60622

INTELSAT 15 (IS-15)
1 36106U 09067A   26170.12566527 -.00000191  00000+0  00000+0 0  9998
2 36106   0.0159 340.9265 0002135 107.1363 309.6753  1.00272203 41245

INTELSAT 16 (IS-16)
1 36397U 10006A   26170.24252053 -.00000251  00000+0  00000+0 0  9991
2 36397   0.0097 336.1585 0001969 125.2068 177.2051  1.00272329 59672

JCSAT-12 (JCSAT-RA)
1 35755U 09044A   26170.27747447 -.00000334  00000+0  00000+0 0  9999
2 35755   0.0080  23.3012 0000209 277.9275 198.2033  1.00270334 61638

MEASAT-3A
1 35362U 09032A   26170.21172103 -.00000117  00000+0  00000+0 0  9994
2 35362   0.0221   2.4613 0002934  78.1148  63.0927  1.00271829  8059

NIMIQ 4
1 33373U 08044A   26170.23251462  .00000000  00000+0  00000+0 0  9994
2 33373   0.0379  52.8727 0002060  35.8109 180.5170  1.00267209 65005

NIMIQ 5
1 35873U 09050A   26170.09435881  .00000000  00000+0  00000+0 0  9992
2 35873   0.0197   4.6168 0002832  81.7376 142.2406  1.00267319 61361

NSS-12
1 36032U 09058A   26170.19118184  .00000065  00000+0  00000+0 0  9994
2 36032   0.0928 275.1070 0005016 144.3080 333.8213  1.00274963 60932

NSS-9
1 33749U 09008A   26170.19975272  .00000065  00000+0  00000+0 0  9990
2 33749   1.2680  82.6379 0002028 346.5606  93.1970  1.00270938 63549

OPTUS D3
1 35756U 09044B   26169.92585219 -.00000152  00000+0  00000+0 0  9995
2 35756   0.8746 268.9338 0002577 175.8548 311.8101  1.00270968 61589

SDO
1 36395U 10005A   26168.41002763 -.00000096  00000+0  00000+0 0  9992
2 36395  34.6527  86.3378 0001734  44.0102 180.8312  1.00269958 60061

SES-1
1 36516U 10016A   26170.23129882 -.00000120  00000+0  00000+0 0  9992
2 36516   0.0301 298.8870 0002644 145.2894 165.5445  1.00270857 59057

SES-7 (PROTOSTAR 2)
1 34941U 09027A   26170.07544863 -.00000351  00000+0  00000+0 0  9990
2 34941   0.0432  69.4363 0000561 277.7077  55.5706  1.00270645 62643

TELSTAR 11N
1 34111U 09009A   26170.17263509 -.00000257  00000+0  00000+0 0  9990
2 34111   0.0266  70.0517 0002268  20.8282 201.0980  1.00270051 46260

TERRESTAR-1
1 35496U 09035A   26170.22930549 -.00000065  00000+0  00000+0 0  9994
2 35496   5.1774  48.7988 0002669  32.7261 157.4697  1.00272712 62156

THOR 6
1 36033U 09058B   26170.25119439 -.00000016  00000+0  00000+0 0  9993
2 36033   0.0242  99.0120 0001633 345.8921 272.1597  1.00271520 61021

WGS F2 (USA 204)
1 34713U 09017A   26170.19144185  .00000062  00000+0  00000+0 0  9990
2 34713   0.0188   6.0524 0000184 318.3465  69.4416  1.00269753 45638

WGS F3 (USA 211)
1 36108U 09068A   26169.65524434  .00000058  00000+0  00000+0 0  9999
2 36108   0.3242  85.6919 0000257 251.5107  35.5777  1.00270012 46607
